[{"OBJECT_NAME":"ONEWEB-0273","OBJECT_ID":"2021-060AA","EPOCH":"2026-03-09T23:06:56.287872","MEAN_MOTION":13.16593681,"ECCENTRICITY":0.00017662,"INCLINATION":87.9005,"RA_OF_ASC_NODE":248.518,"ARG_OF_PERICENTER":99.9854,"MEAN_ANOMALY":260.1476,"EPHEMERIS_TYPE":0,"CLASSIFICATION_TYPE":"U","NORAD_CAT_ID":48991,"ELEMENT_SET_NO":999,"REV_AT_EPOCH":22653,"BSTAR":4.9511675e-5,"MEAN_MOTION_DOT":3.2e-7,"MEAN_MOTION_DDOT":0},{"OBJECT_NAME":"BREEZE-M R\/B","OBJECT_ID":"2008-025E","EPOCH":"2026-03-09T17:23:06.550368","MEAN_MOTION":12.77759449,"ECCENTRICITY":0.01983855,"INCLINATION":82.5048,"RA_OF_ASC_NODE":146.2377,"ARG_OF_PERICENTER":263.0589,"MEAN_ANOMALY":215.0569,"EPHEMERIS_TYPE":0,"CLASSIFICATION_TYPE":"U","NORAD_CAT_ID":32957,"ELEMENT_SET_NO":999,"REV_AT_EPOCH":82989,"BSTAR":6.084448e-5,"MEAN_MOTION_DOT":2.4e-7,"MEAN_MOTION_DDOT":0}]
